{
  "type": "FeatureCollection",
  "features": [
    {
      "type": "Feature",
      "properties": {
        "norad_id": 33886,
        "name": "IRIDIUM 33 DEB",
        "group": "iridium-33-debris",
        "lat": 71.02744374763338,
        "lon": -124.81355330468136,
        "alt_km": 769.3812785541222,
        "timestamp": "2025-12-16T03:53:27.440191+00:00",
        "meta_object_name": "IRIDIUM 33 DEB",
        "meta_object_id": "1997-051BF",
        "meta_epoch": "2025-12-15T07:38:09.695328",
        "meta_mean_motion": 14.36055043,
        "meta_eccentricity": 0.0012489,
        "meta_inclination": 86.383,
        "meta_ra_of_asc_node": 66.1437,
        "meta_arg_of_pericenter": 232.3786,
        "meta_mean_anomaly": 196.0276,
        "meta_ephemeris_type": 0,
        "meta_classification_type": "U",
        "meta_norad_cat_id": 33886,
        "meta_element_set_no": 999,
        "meta_rev_at_epoch": 88089,
        "meta_bstar": 0.00019948096,
        "meta_mean_motion_dot": 6e-06,
        "meta_mean_motion_ddot": 0,
        "tle_line1": "1 33886U 97051BF  25349.31816777  .00000600  00000+0  19948-3 0  9992",
        "tle_line2": "2 33886  86.3830  66.1437 0012489 232.3786 196.0276 14.36055043880895"
      },
      "geometry": {
        "type": "Point",
        "coordinates": [
          -124.81355330468136,
          71.02744374763338
        ]
      }
    },
    {
      "type": "Feature",
      "properties": {
        "norad_id": 33887,
        "name": "IRIDIUM 33 DEB",
        "group": "iridium-33-debris",
        "lat": 59.082923713579675,
        "lon": 8.112945504228202,
        "alt_km": 765.0491046963562,
        "timestamp": "2025-12-16T03:53:27.440201+00:00",
        "meta_object_name": "IRIDIUM 33 DEB",
        "meta_object_id": "1997-051BG",
        "meta_epoch": "2025-12-15T07:38:54.434112",
        "meta_mean_motion": 14.3722324,
        "meta_eccentricity": 0.00046796,
        "meta_inclination": 86.3044,
        "meta_ra_of_asc_node": 2.2809,
        "meta_arg_of_pericenter": 215.6083,
        "meta_mean_anomaly": 162.5671,
        "meta_ephemeris_type": 0,
        "meta_classification_type": "U",
        "meta_norad_cat_id": 33887,
        "meta_element_set_no": 999,
        "meta_rev_at_epoch": 88202,
        "meta_bstar": 0.0001518239,
        "meta_mean_motion_dot": 4.72e-06,
        "meta_mean_motion_ddot": 0,
        "tle_line1": "1 33887U 97051BG  25349.31868558  .00000472  00000+0  15182-3 0  9990",
        "tle_line2": "2 33887  86.3044   2.2809 0004679 215.6083 162.5671 14.37223240882024"
      },
      "geometry": {
        "type": "Point",
        "coordinates": [
          8.112945504228202,
          59.082923713579675
        ]
      }
    },
    {
      "type": "Feature",
      "properties": {
        "norad_id": 33953,
        "name": "IRIDIUM 33 DEB",
        "group": "iridium-33-debris",
        "lat": 41.83548687175595,
        "lon": -130.9503620667141,
        "alt_km": 695.8709529765847,
        "timestamp": "2025-12-16T03:53:27.440212+00:00",
        "meta_object_name": "IRIDIUM 33 DEB",
        "meta_object_id": "1997-051BN",
        "meta_epoch": "2025-12-15T04:17:00.443904",
        "meta_mean_motion": 14.55352616,
        "meta_eccentricity": 0.00182749,
        "meta_inclination": 86.3848,
        "meta_ra_of_asc_node": 52.721,
        "meta_arg_of_pericenter": 95.4842,
        "meta_mean_anomaly": 292.0688,
        "meta_ephemeris_type": 0,
        "meta_classification_type": "U",
        "meta_norad_cat_id": 33953,
        "meta_element_set_no": 999,
        "meta_rev_at_epoch": 88339,
        "meta_bstar": 0.00072143795,
        "meta_mean_motion_dot": 3.157e-05,
        "meta_mean_motion_ddot": 0,
        "tle_line1": "1 33953U 97051BN  25349.17847736  .00003157  00000+0  72144-3 0  9997",
        "tle_line2": "2 33953  86.3848  52.7210 0018274  95.4842 292.0688 14.55352616883397"
      },
      "geometry": {
        "type": "Point",
        "coordinates": [
          -130.9503620667141,
          41.83548687175595
        ]
      }
    },
    {
      "type": "Feature",
      "properties": {
        "norad_id": 33960,
        "name": "IRIDIUM 33 DEB",
        "group": "iridium-33-debris",
        "lat": -49.47760720411286,
        "lon": -76.49750202841756,
        "alt_km": 620.7429669450021,
        "timestamp": "2025-12-16T03:53:27.440222+00:00",
        "meta_object_name": "IRIDIUM 33 DEB",
        "meta_object_id": "1997-051BV",
        "meta_epoch": "2025-12-15T07:38:03.177312",
        "meta_mean_motion": 14.85338087,
        "meta_eccentricity": 0.00074628,
        "meta_inclination": 86.2526,
        "meta_ra_of_asc_node": 288.2983,
        "meta_arg_of_pericenter": 58.1072,
        "meta_mean_anomaly": 62.1633,
        "meta_ephemeris_type": 0,
        "meta_classification_type": "U",
        "meta_norad_cat_id": 33960,
        "meta_element_set_no": 999,
        "meta_rev_at_epoch": 88905,
        "meta_bstar": 0.0020005863,
        "meta_mean_motion_dot": 0.00017256,
        "meta_mean_motion_ddot": 0,
        "tle_line1": "1 33960U 97051BV  25349.31809233  .00017256  00000+0  20006-2 0  9995",
        "tle_line2": "2 33960  86.2526 288.2983 0007462  58.1072  62.1633 14.85338087889052"
      },
      "geometry": {
        "type": "Point",
        "coordinates": [
          -76.49750202841756,
          -49.47760720411286
        ]
      }
    },
    {
      "type": "Feature",
      "properties": {
        "norad_id": 33966,
        "name": "IRIDIUM 33 DEB",
        "group": "iridium-33-debris",
        "lat": -13.316336021700543,
        "lon": -134.58546264807987,
        "alt_km": 726.3071614161609,
        "timestamp": "2025-12-16T03:53:27.440233+00:00",
        "meta_object_name": "IRIDIUM 33 DEB",
        "meta_object_id": "1997-051CB",
        "meta_epoch": "2025-12-15T03:56:02.670720",
        "meta_mean_motion": 14.49604723,
        "meta_eccentricity": 0.0007712,
        "meta_inclination": 86.3927,
        "meta_ra_of_asc_node": 44.9872,
        "meta_arg_of_pericenter": 180.0036,
        "meta_mean_anomaly": 207.3268,
        "meta_ephemeris_type": 0,
        "meta_classification_type": "U",
        "meta_norad_cat_id": 33966,
        "meta_element_set_no": 999,
        "meta_rev_at_epoch": 88477,
        "meta_bstar": 0.0004300415,
        "meta_mean_motion_dot": 1.671e-05,
        "meta_mean_motion_ddot": 0,
        "tle_line1": "1 33966U 97051CB  25349.16391980  .00001671  00000+0  43004-3 0  9997",
        "tle_line2": "2 33966  86.3927  44.9872 0007712 180.0036 207.3268 14.49604723884775"
      },
      "geometry": {
        "type": "Point",
        "coordinates": [
          -134.58546264807987,
          -13.316336021700543
        ]
      }
    },
    {
      "type": "Feature",
      "properties": {
        "norad_id": 34071,
        "name": "IRIDIUM 33 DEB",
        "group": "iridium-33-debris",
        "lat": -77.53098434183514,
        "lon": -146.86047197813497,
        "alt_km": 741.4465618993436,
        "timestamp": "2025-12-16T03:53:27.440244+00:00",
        "meta_object_name": "IRIDIUM 33 DEB",
        "meta_object_id": "1997-051CE",
        "meta_epoch": "2025-12-15T08:28:46.179264",
        "meta_mean_motion": 14.49477344,
        "meta_eccentricity": 0.00099829,
        "meta_inclination": 86.3458,
        "meta_ra_of_asc_node": 16.6927,
        "meta_arg_of_pericenter": 100.6332,
        "meta_mean_anomaly": 259.5997,
        "meta_ephemeris_type": 0,
        "meta_classification_type": "U",
        "meta_norad_cat_id": 34071,
        "meta_element_set_no": 999,
        "meta_rev_at_epoch": 88372,
        "meta_bstar": 0.00050029071,
        "meta_mean_motion_dot": 1.936e-05,
        "meta_mean_motion_ddot": 0,
        "tle_line1": "1 34071U 97051CE  25349.35331226  .00001936  00000+0  50029-3 0  9992",
        "tle_line2": "2 34071  86.3458  16.6927 0009982 100.6332 259.5997 14.49477344883726"
      },
      "geometry": {
        "type": "Point",
        "coordinates": [
          -146.86047197813497,
          -77.53098434183514
        ]
      }
    },
    {
      "type": "Feature",
      "properties": {
        "norad_id": 34077,
        "name": "IRIDIUM 33 DEB",
        "group": "iridium-33-debris",
        "lat": -70.15577097747538,
        "lon": 39.91472588785673,
        "alt_km": 685.8750136009348,
        "timestamp": "2025-12-16T03:53:27.440254+00:00",
        "meta_object_name": "IRIDIUM 33 DEB",
        "meta_object_id": "1997-051CL",
        "meta_epoch": "2025-12-15T03:52:30.943200",
        "meta_mean_motion": 14.64868384,
        "meta_eccentricity": 0.00099283,
        "meta_inclination": 86.3863,
        "meta_ra_of_asc_node": 50.4405,
        "meta_arg_of_pericenter": 31.4541,
        "meta_mean_anomaly": 24.6703,
        "meta_ephemeris_type": 0,
        "meta_classification_type": "U",
        "meta_norad_cat_id": 34077,
        "meta_element_set_no": 999,
        "meta_rev_at_epoch": 88368,
        "meta_bstar": 0.00068720311,
        "meta_mean_motion_dot": 3.694e-05,
        "meta_mean_motion_ddot": 0,
        "tle_line1": "1 34077U 97051CL  25349.16146925  .00003694  00000+0  68720-3 0  9997",
        "tle_line2": "2 34077  86.3863  50.4405 0009928  31.4541  24.6703 14.64868384883688"
      },
      "geometry": {
        "type": "Point",
        "coordinates": [
          39.91472588785673,
          -70.15577097747538
        ]
      }
    }
  ]
}